{
    "links": {
        "self": "http://www.neowsapp.com/rest/v1/neo/3844029?api_key=iIulBulltgU6a56xZRHN4H3l9WmuAYTsLGpBGhQ2"
    },
    "id": "3844029",
    "neo_reference_id": "3844029",
    "name": "(2019 SS3)",
    "designation": "2019 SS3",
    "nasa_jpl_url": "http://ssd.jpl.nasa.gov/sbdb.cgi?sstr=3844029",
    "absolute_magnitude_h": 26.2,
    "estimated_diameter": {
        "kilometers": {
            "estimated_diameter_min": 0.0152951935,
            "estimated_diameter_max": 0.0342010925
        },
        "meters": {
            "estimated_diameter_min": 15.2951935344,
            "estimated_diameter_max": 34.201092472
        },
        "miles": {
            "estimated_diameter_min": 0.0095039897,
            "estimated_diameter_max": 0.021251567
        },
        "feet": {
            "estimated_diameter_min": 50.1810827555,
            "estimated_diameter_max": 112.2083122258
        }
    },
    "is_potentially_hazardous_asteroid": false,
    "close_approach_data": [
        {
            "close_approach_date": "2016-03-26",
            "close_approach_date_full": "2016-Mar-26 07:51",
            "epoch_date_close_approach": 1458978660000,
            "relative_velocity": {
                "kilometers_per_second": "19.9271844953",
                "kilometers_per_hour": "71737.864182913",
                "miles_per_hour": "44575.1189974328"
            },
            "miss_distance": {
                "astronomical": "0.1989086569",
                "lunar": "77.3754675341",
                "kilometers": "29756311.396800803",
                "miles": "18489714.5225169614"
            },
            "orbiting_body": "Earth"
        },
        {
            "close_approach_date": "2019-09-22",
            "close_approach_date_full": "2019-Sep-22 22:09",
            "epoch_date_close_approach": 1569190140000,
            "relative_velocity": {
                "kilometers_per_second": "15.3678648746",
                "kilometers_per_hour": "55324.3135487245",
                "miles_per_hour": "34376.376938095"
            },
            "miss_distance": {
                "astronomical": "0.0030815362",
                "lunar": "1.1987175818",
                "kilometers": "460991.251847894",
                "miles": "286446.6811891772"
            },
            "orbiting_body": "Moon"
        },
        {
            "close_approach_date": "2019-09-22",
            "close_approach_date_full": "2019-Sep-22 22:46",
            "epoch_date_close_approach": 1569192360000,
            "relative_velocity": {
                "kilometers_per_second": "14.4169255742",
                "kilometers_per_hour": "51900.9320671175",
                "miles_per_hour": "32249.2208169264"
            },
            "miss_distance": {
                "astronomical": "0.0018794473",
                "lunar": "0.7311049997",
                "kilometers": "281161.312857251",
                "miles": "174705.5386060238"
            },
            "orbiting_body": "Earth"
        },
        {
            "close_approach_date": "2024-03-26",
            "close_approach_date_full": "2024-Mar-26 03:58",
            "epoch_date_close_approach": 1711425480000,
            "relative_velocity": {
                "kilometers_per_second": "19.8701958894",
                "kilometers_per_hour": "71532.7052017489",
                "miles_per_hour": "44447.6411849423"
            },
            "miss_distance": {
                "astronomical": "0.1959072",
                "lunar": "76.2079008",
                "kilometers": "29307299.837664",
                "miles": "18210711.6772032"
            },
            "orbiting_body": "Earth"
        }
    ],
    "orbital_data": {
        "orbit_id": "2",
        "orbit_determination_date": "2020-09-11 07:44:24",
        "first_observation_date": "2019-09-25",
        "last_observation_date": "2019-09-29",
        "data_arc_in_days": 4,
        "observations_used": 28,
        "orbit_uncertainty": "7",
        "minimum_orbit_intersection": ".00170582",
        "jupiter_tisserand_invariant": "4.703",
        "epoch_osculation": "2459000.5",
        "eccentricity": ".4648063424890967",
        "semi_major_axis": "1.368196381593247",
        "inclination": "7.666094894258697",
        "ascending_node_longitude": "358.5819920133794",
        "orbital_period": "584.5492170708536",
        "perihelion_distance": ".7322500256580735",
        "perihelion_argument": "279.3439663391847",
        "aphelion_distance": "2.004142737528421",
        "perihelion_time": "2459280.149456714505",
        "mean_anomaly": "187.7753156155213",
        "mean_motion": ".6158591774426484",
        "equinox": "J2000",
        "orbit_class": {
            "orbit_class_type": "APO",
            "orbit_class_description": "Near-Earth asteroid orbits which cross the Earth’s orbit similar to that of 1862 Apollo",
            "orbit_class_range": "a (semi-major axis) > 1.0 AU; q (perihelion) < 1.017 AU"
        }
    },
    "is_sentry_object": false
}